PANDORA
1 67395U 80229J   26115.84267361  .00000000  00000-0  37770-3 0    03
2 67395  97.8050 115.3153 0003819 312.2867 347.0718 14.87983013    04
